# From MPEC 2022-S20
C/1995 O1 (Hale-Bopp),e,89.4340,282.4282,130.4161,176.9277,0.0004188,0.99496649,0.0000,03/29.5021/1997,2000,g -2.0,4.0
# From NK 1615
P/1996 R2 (Lagerkvist),e,2.6009,40.0091,333.4292,3.774391,0.1344107,0.31459148,208.6698,05/16.0/2023,2000,g 11.5,4.0
# From MPC 75703
P/1998 VS24 (LINEAR),e,5.0264,159.0331,244.6770,4.524360,0.1024161,0.24340653,198.7491,05/16.0/2023,2000,g 13.0,2.0
# From NK 731
P/1999 RO28 (LONEOS),e,7.5642,137.8550,231.3267,3.426357,0.1554015,0.67251143,220.4595,05/16.0/2023,2000,g 20.0,2.0
# From MPC 75704
P/1999 XN120 (Catalina),e,5.0298,285.2959,161.6617,4.178986,0.1153713,0.21056674,250.1933,05/16.0/2023,2000,g 13.5,2.0
# From NK 744
P/2000 R2 (LINEAR),e,11.6845,160.2846,176.5992,3.468025,0.1526092,0.53121535,217.9436,05/16.0/2023,2000,g 18.0,4.0
# From MPC 43019
P/2001 H5 (NEAT),e,8.3670,328.6836,224.6839,6.095542,0.0654916,0.59824610,181.6419,05/16.0/2023,2000,g 12.0,4.0
# From MPC 75704
P/2001 Q6 (NEAT),e,56.9118,22.1841,42.9406,7.963134,0.0438609,0.82349261,347.3535,05/16.0/2023,2000,g 13.5,4.0
# From MPC 47727
P/2002 EJ57 (LINEAR),e,4.9794,330.2901,167.2700,6.461014,0.0600141,0.59263720,107.6355,05/16.0/2023,2000,g 12.5,4.0
# From MPC109588
P/2002 T6 (NEAT-LINEAR),e,10.8569,206.0444,219.4099,7.757915,0.0456128,0.56372740,340.3921,05/16.0/2023,2000,g 10.5,4.0
# From MPC 75007
C/2002 VQ94 (LINEAR),e,70.7066,35.1578,99.9226,184.4914,0.0003933,0.96317584,2.4829,05/16.0/2023,2000,g  9.5,2.0
# From MPC 50354
P/2003 F2 (NEAT),e,11.6174,358.9713,192.2754,6.501017,0.0594610,0.54131052,76.1684,05/16.0/2023,2000,g 16.5,2.0
# From MPC 50139
P/2003 QX29 (NEAT),e,11.3956,264.4987,37.6972,8.011850,0.0434615,0.47226941,324.6290,05/16.0/2023,2000,g  8.5,4.0
# From MPC105235
P/2003 T12 (SOHO),e,11.0217,174.5805,219.7648,2.585102,0.2371305,0.77023188,261.6507,05/16.0/2023,2000,g 17.0,4.0
# From MPC 54558
P/2004 DO29 (Spacewatch-LINEAR),e,14.5292,147.3796,40.4545,7.300953,0.0499614,0.44156489,340.7962,05/16.0/2023,2000,g 13.5,2.0
# From MPEC 2022-YN2
P/2004 FY140 (LINEAR),e,2.1619,327.2726,254.1930,4.969496,0.0889684,0.19165718,237.2854,05/16.0/2023,2000,g 12.5,2.0
# From MPC 53304
P/2004 R3 (LINEAR-NEAT),e,12.7842,305.2918,37.5779,4.759282,0.0949275,0.25508158,57.2828,05/16.0/2023,2000,g 14.5,4.0
# From MPC 55521
P/2004 V3 (Siding Spring),e,50.4444,356.1262,322.5256,7.126677,0.0518052,0.44574234,350.0893,05/16.0/2023,2000,g 11.5,4.0
# From MPC 75705
P/2004 V5 (LINEAR-Hill),e,19.3487,47.7707,87.5091,7.997196,0.0435810,0.44557754,292.5000,05/16.0/2023,2000,g  8.0,4.0
# From MPC 54164
P/2005 E1 (Tubbiolo),e,4.2623,335.5786,193.8443,7.055061,0.0525960,0.37595004,352.8997,05/16.0/2023,2000,g 10.0,4.0
# From MPC 79019
P/2005 J1 (McNaught),e,31.7331,268.8290,338.9062,3.572550,0.1459609,0.56894661,244.9886,05/16.0/2023,2000,g 16.5,4.0
# From MPC 74246
P/2005 L1 (McNaught),e,7.6955,137.8920,150.9390,4.005702,0.1229380,0.21545661,68.0533,05/16.0/2023,2000,g  9.5,4.0
# From MPC 75706
P/2005 S2 (Skiff),e,3.1357,161.2189,229.5946,8.000440,0.0435545,0.19878417,269.6504,05/16.0/2023,2000,g  7.5,4.0
# From MPC 75706
P/2005 SB216 (LONEOS),e,24.1189,1.1176,83.2173,7.149669,0.0515555,0.46499976,309.7330,05/16.0/2023,2000,g 12.0,2.0
# From MPC 73461
P/2005 T3 (Read),e,6.2246,27.6434,6.7305,7.588429,0.0471494,0.17552935,304.0524,05/16.0/2023,2000,g  9.0,4.0
# From MPC 73461
P/2005 T4 (SWAN),e,160.2757,25.9392,41.8689,9.357163,0.0344340,0.92994938,221.2125,05/16.0/2023,2000,g 15.0,4.0
# From MPC 75706
P/2005 T5 (Broughton),e,21.3827,57.0038,304.7377,7.276017,0.0502185,0.55258372,321.8124,05/16.0/2023,2000,g 11.0,4.0
# From MPC 75707
P/2006 HR30 (Siding Spring),e,31.8808,309.7910,117.4326,7.806844,0.0451846,0.84335684,270.8521,05/16.0/2023,2000,g 11.0,4.0
# From MPC 75707
P/2007 C2 (Catalina),e,8.6039,275.2573,180.1882,7.002682,0.0531872,0.47251720,304.6042,05/16.0/2023,2000,g 10.0,4.0
# From MPC 84315
C/2007 D1 (LINEAR),e,41.5024,171.2116,339.7411,1159,0.0000250,0.99242926,0.0000,06/07.8323/2007,2000,g  3.5,4.0
# From MPC 82314
P/2007 K2 (Gibbs),e,7.6276,188.6348,347.3128,7.281933,0.0501573,0.68351998,293.6429,05/16.0/2023,2000,g 14.0,4.0
# From MPC 60925
P/2007 Q2 (Gilmore),e,10.2021,172.1580,162.8795,5.659088,0.0732124,0.66982610,65.9037,05/16.0/2023,2000,g 16.0,4.0
# From MPC 73462
P/2007 S1 (Zhao),e,5.9611,141.3407,245.1884,3.817311,0.1321502,0.33861839,29.2410,05/16.0/2023,2000,g 13.0,4.0
# From MPC 61994
P/2007 T2 (Kowalski),e,9.7512,3.3734,359.6796,3.044844,0.1855054,0.78567432,325.5673,05/16.0/2023,2000,g 18.5,4.0
# From MPC 75709
P/2008 L2 (Hill),e,25.8693,218.0129,141.2582,6.034275,0.0664915,0.61388153,0.3309,05/16.0/2023,2000,g 12.5,4.0
# From MPC 64114
P/2008 O3 (Boattini),e,32.3453,47.5605,341.1961,8.213378,0.0418718,0.69651061,228.5171,05/16.0/2023,2000,g 13.0,4.0
# From MPC 75710
P/2008 Y3 (McNaught),e,38.7823,262.8795,238.0043,8.046551,0.0431807,0.44628576,227.3873,05/16.0/2023,2000,g  8.5,4.0
# From MPC 75710
P/2009 B1 (Boattini),e,22.2444,297.0701,128.9303,6.735771,0.0563797,0.63584354,295.6452,05/16.0/2023,2000,g 13.0,4.0
# From MPC 66466
C/2009 G1 (STEREO),e,108.3725,120.6308,175.5268,470.3127,0.0000966,0.99757923,0.0000,04/19.1157/2009,2000,g  9.0,4.0
# From MPC 75710
P/2009 O3 (Hill),e,16.2874,183.6860,154.5001,7.767014,0.0455327,0.68750483,232.1407,05/16.0/2023,2000,g 12.5,4.0
# From MPC 68902
P/2009 Q5 (McNaught),e,40.9751,160.2579,209.1493,7.427811,0.0486870,0.60992769,242.8637,05/16.0/2023,2000,g 10.0,4.0
# From MPC112389
P/2009 T2 (La Sagra),e,27.6128,215.9146,216.3293,7.716369,0.0459817,0.76682891,224.4649,05/16.0/2023,2000,g 14.0,4.0
# From MPC105235
P/2009 WX51 (Catalina),e,9.5959,31.5467,118.2714,3.082754,0.1820941,0.73929212,165.9603,05/16.0/2023,2000,g 19.0,2.0
# From MPC 74247
P/2009 Y2 (Kowalski),e,29.9720,262.0522,172.1493,6.548186,0.0588197,0.63704329,283.7711,05/16.0/2023,2000,g 13.0,4.0
# From MPC 75711
P/2010 A3 (Hill),e,14.8147,63.6015,42.2998,6.089576,0.0655879,0.73388188,316.3417,05/16.0/2023,2000,g 14.0,4.0
# From MPC 75008
P/2010 C1 (Scotti),e,9.1211,141.8370,3.2229,7.108766,0.0520011,0.26135322,257.7281,05/16.0/2023,2000,g  9.5,4.0
# From MPC 75008
P/2010 D2 (WISE),e,57.1076,319.8798,119.9117,6.722399,0.0565480,0.45154912,274.3115,05/16.0/2023,2000,g 16.0,4.0
# From MPC 75009
P/2010 E2 (Jarnac),e,15.3883,177.8220,8.2703,8.639857,0.0388101,0.71952684,186.4448,05/16.0/2023,2000,g 14.0,4.0
# From MPC 72851
P/2010 H2 (Vales),e,14.2805,64.1872,128.0354,3.831643,0.1314094,0.19696234,272.7753,05/16.0/2023,2000,g  6.0,4.0
# From MPC 70361
P/2010 H3 (SOHO),e,23.1091,77.1345,26.1053,3.036117,0.1863058,0.98542818,0.0000,02/07.8553/2021,2000,g 20.0,2.0
# From MPC 73463
P/2010 H4 (Scotti),e,2.3178,44.7272,179.1887,6.604092,0.0580744,0.26603449,274.8747,05/16.0/2023,2000,g 10.5,4.0
# From MPC 74637
P/2010 H5 (Scotti),e,14.0570,24.7926,174.5481,7.173481,0.0512990,0.15265007,246.9953,05/16.0/2023,2000,g 13.0,2.0
# From MPC 98558
P/2010 J3 (McMillan),e,13.2542,106.4901,157.5489,8.982677,0.0366096,0.72505721,170.2328,05/16.0/2023,2000,g 11.0,4.0
# From MPC 84315
P/2010 JC81 (WISE),e,38.8319,30.8721,12.4406,8.104765,0.0427163,0.77811453,188.0112,05/16.0/2023,2000,g  9.0,4.0
# From MPC xxxxx
P/2010 OE101 (WISE),e,18.4122,194.3758,174.8033,3.142412,0.1769332,0.57034771,104.0507,05/16.0/2023,2000,g 18.5,4.0
# From MPC 74248
P/2010 T2 (PANSTARRS),e,7.8953,58.4243,352.2317,5.598299,0.0744081,0.32588418,337.5957,05/16.0/2023,2000,g 11.5,4.0
# From MPEC 2023-B57
P/2010 TO20 (LINEAR-Grauer),e,2.4788,43.2767,267.6569,5.832566,0.0699704,0.05563296,11.7177,05/16.0/2023,2000,g  9.0,4.0
# From MPC 82316
P/2010 U1 (Boattini),e,8.2231,280.6726,86.3831,6.498206,0.0594996,0.24917216,288.0102,05/16.0/2023,2000,g  9.5,4.0
# From MPEC 2023-J95
C/2010 U3 (Boattini),e,55.5625,42.9896,88.0380,3085,0.0000058,0.99726442,0.0000,02/25.5609/2019,2000,g  1.0,4.0
# From MPC 79021
P/2010 UH55 (Spacewatch),e,8.0376,232.8928,225.1571,6.654130,0.0574205,0.56402721,254.0518,05/16.0/2023,2000,g 11.0,4.0
# From MPC 75009
P/2010 WK (LINEAR),e,11.4018,11.3286,41.0025,5.761944,0.0712608,0.69061857,329.1915,05/16.0/2023,2000,g 14.5,2.0
# From MPC 84021
P/2011 C2 (Gibbs),e,10.8881,12.1196,160.3433,7.412638,0.0488365,0.26941040,203.8160,05/16.0/2023,2000,g  9.0,4.0
# From MPC 79866
P/2011 FR143 (Lemmon),e,15.9758,190.9494,349.8562,6.865756,0.0547862,0.45104016,245.2261,05/16.0/2023,2000,g 14.0,2.0
# From MPC 82317
P/2011 JB15 (Spacewatch-Boattini),e,19.1437,153.6015,110.9877,7.369889,0.0492621,0.31539220,204.0240,05/16.0/2023,2000,g  9.0,4.0
# From MPEC 2023-J95
C/2011 KP36 (Spacewatch),e,18.9869,173.2679,180.9237,39.42293,0.0039818,0.87575607,10.1255,05/16.0/2023,2000,g  4.5,4.0
# From MPC 87913
P/2011 N1 (ASH),e,35.7813,77.5757,330.4221,6.242573,0.0631915,0.54527240,253.2364,05/16.0/2023,2000,g 11.5,4.0
# From MPC 75714
P/2011 NO1 (Elenin),e,15.2451,295.8255,263.7070,5.534614,0.0756960,0.77475591,341.4570,05/16.0/2023,2000,g 15.0,4.0
# From MPEC 2022-ED3
P/2011 P1 (McNaught),e,5.6597,4.2287,349.1964,7.458574,0.0483861,0.32754852,225.8606,05/16.0/2023,2000,g  9.0,4.0
# From MPEC 2022-HC2
P/2011 S1 (Gibbs),e,2.6884,218.8170,192.5980,8.584589,0.0391854,0.20167973,125.1349,05/16.0/2023,2000,g  8.0,4.0
# From MPC 79022
P/2011 UA134 (Spacewatch-PANSTARRS),e,10.4403,40.3935,32.4143,5.610055,0.0741743,0.62994289,312.3141,05/16.0/2023,2000,g 17.5,4.0
# From MPC 77406
P/2011 V1 (Boattini),e,7.3751,46.7746,269.3898,3.857867,0.1300718,0.54978745,219.4254,05/16.0/2023,2000,g 15.5,4.0
# From MPC 82718
P/2011 W1 (PANSTARRS),e,3.7185,161.7851,282.8274,4.668268,0.0977171,0.28830048,45.1276,05/16.0/2023,2000,g 11.5,4.0
# From MPC 79342
P/2011 Y2 (Boattini),e,6.3815,309.3097,131.9861,6.236617,0.0632820,0.71061698,258.7108,05/16.0/2023,2000,g 15.0,4.0
# From MPEC 2022-K19
P/2012 B1 (PANSTARRS),e,7.6104,36.2163,162.2925,6.532404,0.0590330,0.40919414,212.5537,05/16.0/2023,2000,g  9.0,4.0
# From MPC 78590
P/2012 C3 (PANSTARRS),e,9.0920,135.3677,344.9542,9.748681,0.0323806,0.63011148,359.9758,10/06.0/2011,2000,g 13.0,4.0
# From MPC 84931
